[{"OBJECT_NAME":"STARLINK-34826","OBJECT_ID":"2025-190K","EPOCH":"2026-03-09T13:30:04.421088","MEAN_MOTION":15.30186722,"ECCENTRICITY":0.0001002,"INCLINATION":53.1574,"RA_OF_ASC_NODE":168.9178,"ARG_OF_PERICENTER":79.5417,"MEAN_ANOMALY":280.5696,"EPHEMERIS_TYPE":0,"CLASSIFICATION_TYPE":"U","NORAD_CAT_ID":65360,"ELEMENT_SET_NO":999,"REV_AT_EPOCH":2926,"BSTAR":0.00069281,"MEAN_MOTION_DOT":0.00020207,"MEAN_MOTION_DDOT":0},{"OBJECT_NAME":"OBJECT F","OBJECT_ID":"2021-022F","EPOCH":"2026-03-09T23:37:37.165152","MEAN_MOTION":15.31317672,"ECCENTRICITY":0.00120882,"INCLINATION":97.3982,"RA_OF_ASC_NODE":329.8375,"ARG_OF_PERICENTER":85.9268,"MEAN_ANOMALY":274.3355,"EPHEMERIS_TYPE":0,"CLASSIFICATION_TYPE":"U","NORAD_CAT_ID":47937,"ELEMENT_SET_NO":999,"REV_AT_EPOCH":27452,"BSTAR":0.00038690553,"MEAN_MOTION_DOT":0.00011656,"MEAN_MOTION_DDOT":0}]
